{"type":"FeatureCollection","features":[{"type":"Feature","geometry":{"type":"Polygon","coordinates":[[[18.1011,50.1777],[18.1009,50.1756],[18.1058,50.1688],[18.1105,50.1673],[18.1182,50.1726],[18.1228,50.1748],[18.1205,50.1792],[18.1246,50.18],[18.1335,50.1844],[18.1379,50.1795],[18.1415,50.1808],[18.1456,50.1795],[18.1484,50.182],[18.1623,50.1892],[18.1727,50.1867],[18.177,50.1837],[18.186,50.181],[18.1853,50.1869],[18.1914,50.1873],[18.2051,50.1903],[18.2327,50.1911],[18.2491,50.1926],[18.2494,50.1978],[18.244,50.1969],[18.2397,50.198],[18.2356,50.201],[18.2376,50.2099],[18.2367,50.2142],[18.2494,50.2178],[18.2524,50.2226],[18.2645,50.2222],[18.2713,50.2204],[18.2752,50.2249],[18.2949,50.2284],[18.2964,50.2303],[18.3053,50.2318],[18.3084,50.2313],[18.3132,50.2359],[18.313,50.2407],[18.3262,50.2412],[18.3308,50.2443],[18.3469,50.2473],[18.3621,50.2473],[18.3551,50.2551],[18.354,50.2576],[18.3624,50.2564],[18.3687,50.2545],[18.3766,50.2539],[18.386,50.2555],[18.399,50.2538],[18.4059,50.2548],[18.4122,50.2518],[18.4208,50.2491],[18.4258,50.249],[18.4202,50.2615],[18.4253,50.2613],[18.4278,50.265],[18.427,50.2687],[18.4202,50.2739],[18.4061,50.2771],[18.4009,50.2772],[18.3939,50.2754],[18.3964,50.2804],[18.4002,50.2841],[18.4068,50.2872],[18.4076,50.2899],[18.4033,50.2973],[18.4003,50.2988],[18.3932,50.3054],[18.394,50.3092],[18.3921,50.3134],[18.3978,50.3152],[18.409,50.3172],[18.4057,50.3243],[18.3981,50.3232],[18.401,50.3272],[18.4001,50.3313],[18.3947,50.3378],[18.3868,50.3424],[18.3799,50.3451],[18.3733,50.3463],[18.366,50.3505],[18.3577,50.3566],[18.3504,50.3624],[18.3453,50.3683],[18.3392,50.3728],[18.3355,50.3742],[18.3301,50.3817],[18.3228,50.3824],[18.3175,50.3852],[18.3152,50.3882],[18.3089,50.3926],[18.3034,50.3978],[18.2986,50.4047],[18.2902,50.4012],[18.2813,50.3943],[18.2756,50.3871],[18.2651,50.3892],[18.2578,50.3892],[18.2427,50.3916],[18.2293,50.3953],[18.2302,50.3917],[18.2297,50.3831],[18.199,50.3776],[18.1889,50.3766],[18.184,50.3814],[18.1804,50.3817],[18.177,50.3846],[18.1728,50.3841],[18.1639,50.3852],[18.1583,50.3889],[18.1535,50.3866],[18.1496,50.3856],[18.1464,50.382],[18.1407,50.3792],[18.1427,50.3741],[18.1325,50.3751],[18.1255,50.3705],[18.1096,50.3752],[18.1084,50.3773],[18.1123,50.3874],[18.1124,50.39],[18.108,50.3943],[18.1063,50.4021],[18.1101,50.4061],[18.1015,50.4062],[18.1012,50.4094],[18.1064,50.4118],[18.098,50.4156],[18.0919,50.414],[18.0898,50.4105],[18.0857,50.4096],[18.0833,50.4127],[18.0796,50.4106],[18.0763,50.4114],[18.0766,50.4148],[18.0847,50.4186],[18.0812,50.4205],[18.0751,50.4163],[18.0679,50.4169],[18.0625,50.4099],[18.0573,50.4088],[18.0541,50.4061],[18.0491,50.4048],[18.0505,50.3988],[18.0589,50.3956],[18.0535,50.3934],[18.0416,50.3919],[18.0346,50.3859],[18.034,50.383],[18.0385,50.3793],[18.0344,50.3753],[18.0409,50.3743],[18.0558,50.3675],[18.0596,50.3642],[18.06,50.3615],[18.0534,50.3541],[18.0498,50.3433],[18.045,50.343],[18.0323,50.346],[18.0314,50.3433],[18.0283,50.3256],[18.029,50.3229],[18.015,50.3241],[18.0001,50.3232],[17.9912,50.3211],[17.9838,50.3218],[17.9696,50.3199],[17.9626,50.3176],[17.9545,50.3259],[17.9497,50.3226],[17.947,50.3164],[17.9427,50.3146],[17.9373,50.3151],[17.9318,50.3105],[17.9258,50.311],[17.9215,50.3081],[17.9113,50.3037],[17.9134,50.2983],[17.9185,50.2926],[17.9259,50.2917],[17.9354,50.2888],[17.9323,50.2795],[17.9322,50.2755],[17.9295,50.2741],[17.9218,50.2768],[17.9195,50.2733],[17.9236,50.2699],[17.9191,50.2651],[17.9229,50.2587],[17.9229,50.2536],[17.9248,50.2469],[17.9243,50.2437],[17.9252,50.235],[17.9205,50.2332],[17.9239,50.2293],[17.9184,50.2273],[17.9221,50.2235],[17.9207,50.221],[17.9216,50.2166],[17.927,50.2113],[17.9365,50.213],[17.9598,50.2187],[17.9604,50.217],[17.969,50.2183],[17.9637,50.2133],[17.9725,50.2078],[17.9786,50.2049],[17.9767,50.1949],[17.972,50.1857],[17.9811,50.1835],[17.9844,50.1841],[17.9992,50.1841],[18.0075,50.1805],[18.0207,50.1771],[18.0325,50.1732],[18.0356,50.1709],[18.0449,50.175],[18.0523,50.1799],[18.0598,50.1747],[18.0649,50.1718],[18.071,50.1706],[18.0784,50.1744],[18.1011,50.1777]]]},"properties":{"JPT_KOD_JE":"1603","JPT_NAZWA_":"powiat kędzierzyńsko-kozielski"}}]}